CCSDS_OMM_VERS = 2.0
CREATION_DATE  = 
ORIGINATOR     = 

OBJECT_NAME    = CZ-2C R/B
OBJECT_ID      = 2022-132E
CENTER_NAME    = EARTH
REF_FRAME      = TEME
TIME_SYSTEM    = UTC
MEAN_ELEMENT_THEORY = SGP/SGP4

EPOCH          = 2026-02-08T13:54:53.034336
MEAN_MOTION    = 15.59328315
ECCENTRICITY   = .00182545
INCLINATION    = 97.2963
RA_OF_ASC_NODE = 42.0752
ARG_OF_PERICENTER = 189.8449
MEAN_ANOMALY   = 170.2452

EPHEMERIS_TYPE = 0
CLASSIFICATION_TYPE = U
NORAD_CAT_ID   = 54039
ELEMENT_SET_NO = 999
REV_AT_EPOCH   = 18583
BSTAR          = .43270738E-3
MEAN_MOTION_DOT = .34318E-3
MEAN_MOTION_DDOT = 0

CCSDS_OMM_VERS = 2.0
CREATION_DATE  = 
ORIGINATOR     = 

OBJECT_NAME    = GSLV R/B
OBJECT_ID      = 2022-138AN
CENTER_NAME    = EARTH
REF_FRAME      = TEME
TIME_SYSTEM    = UTC
MEAN_ELEMENT_THEORY = SGP/SGP4

EPOCH          = 2026-02-08T10:27:30.539232
MEAN_MOTION    = 14.96548804
ECCENTRICITY   = .00193365
INCLINATION    = 87.3863
RA_OF_ASC_NODE = 176.1511
ARG_OF_PERICENTER = 256.5917
MEAN_ANOMALY   = 103.3159

EPHEMERIS_TYPE = 0
CLASSIFICATION_TYPE = U
NORAD_CAT_ID   = 54149
ELEMENT_SET_NO = 999
REV_AT_EPOCH   = 17955
BSTAR          = .36190579E-3
MEAN_MOTION_DOT = .4157E-4
MEAN_MOTION_DDOT = 0

CCSDS_OMM_VERS = 2.0
CREATION_DATE  = 
ORIGINATOR     = 

OBJECT_NAME    = XRISM
OBJECT_ID      = 2023-137A
CENTER_NAME    = EARTH
REF_FRAME      = TEME
TIME_SYSTEM    = UTC
MEAN_ELEMENT_THEORY = SGP/SGP4

EPOCH          = 2026-02-08T06:00:34.881408
MEAN_MOTION    = 15.11132279
ECCENTRICITY   = .000808
INCLINATION    = 31.0017
RA_OF_ASC_NODE = 114.0173
ARG_OF_PERICENTER = 105.7749
MEAN_ANOMALY   = 254.3781

EPHEMERIS_TYPE = 0
CLASSIFICATION_TYPE = U
NORAD_CAT_ID   = 57800
ELEMENT_SET_NO = 999
REV_AT_EPOCH   = 13333
BSTAR          = .41295E-3
MEAN_MOTION_DOT = .7197E-4
MEAN_MOTION_DDOT = 0

CCSDS_OMM_VERS = 2.0
CREATION_DATE  = 
ORIGINATOR     = 

OBJECT_NAME    = ACS3
OBJECT_ID      = 2024-077B
CENTER_NAME    = EARTH
REF_FRAME      = TEME
TIME_SYSTEM    = UTC
MEAN_ELEMENT_THEORY = SGP/SGP4

EPOCH          = 2026-02-08T11:12:01.633248
MEAN_MOTION    = 13.88408887
ECCENTRICITY   = .00455219
INCLINATION    = 97.2222
RA_OF_ASC_NODE = 347.1483
ARG_OF_PERICENTER = 167.8687
MEAN_ANOMALY   = 192.3584

EPHEMERIS_TYPE = 0
CLASSIFICATION_TYPE = U
NORAD_CAT_ID   = 59588
ELEMENT_SET_NO = 999
REV_AT_EPOCH   = 9014
BSTAR          = .1958967E-1
MEAN_MOTION_DOT = .23726E-3
MEAN_MOTION_DDOT = 0

CCSDS_OMM_VERS = 2.0
CREATION_DATE  = 
ORIGINATOR     = 

OBJECT_NAME    = SZ-21 MODULE
OBJECT_ID      = 2025-246C
CENTER_NAME    = EARTH
REF_FRAME      = TEME
TIME_SYSTEM    = UTC
MEAN_ELEMENT_THEORY = SGP/SGP4

EPOCH          = 2026-02-08T07:37:37.166592
MEAN_MOTION    = 15.66324855
ECCENTRICITY   = .0002849
INCLINATION    = 41.4766
RA_OF_ASC_NODE = 23.8541
ARG_OF_PERICENTER = 283.8241
MEAN_ANOMALY   = 76.2283

EPHEMERIS_TYPE = 0
CLASSIFICATION_TYPE = U
NORAD_CAT_ID   = 66515
ELEMENT_SET_NO = 999
REV_AT_EPOCH   = 1346
BSTAR          = .3409E-3
MEAN_MOTION_DOT = .36164E-3
MEAN_MOTION_DDOT = 0

